"MEAN_MOTION","ECCENTRICITY","INCLINATION","RA_OF_ASC_NODE","ARG_OF_PERICENTER","MEAN_ANOMALY","SEMIMAJOR_AXIS","PERIOD","APOAPSIS","PERIAPSIS","OBJECT_AGE","CENT_FOCUS_DIST","OBJECT_TYPE","RCS_SIZE"
0.917748621550168,0.000193376686863292,0.366930687043175,0.629671405222811,0.205619063413501,0.794735276216182,0.00217588492657901,0.000608842792487212,0.00120873737129818,0.0095228020458625,0.0166666666666667,9.28222234409961e-06,"PAYLOAD","LARGE"
0.91774943112076,0.000141326593050521,0.366934145221351,0.123485371077314,0.227468785218804,0.772871941020693,0.00217586217198888,0.000608842792487212,0.0012076546322975,0.00952924867679375,0.0166666666666667,6.72035839581437e-06,"PAYLOAD","LARGE"
0.900821389831683,0.00250408877450005,0.679380543459617,0.222350512393599,0.0337336592387891,0.966778997886254,0.00266417567617597,0.000747857608597431,0.00154113162224943,0.0109588898144057,0.116666666666667,0.000124544374555856,"ROCKET BODY","LARGE"
0.917746477016697,0.000157264844474988,0.366936220128257,0.270324955361595,0.233685212331627,0.76666015699332,0.00217594181305434,0.000608842792487212,0.00120803210093994,0.00952753629045264,0.0166666666666667,7.50484083167461e-06,"PAYLOAD","LARGE"
0.917750219209191,0.00012371649707104,0.366936911763892,0.123405359497861,0.245125238310725,0.755210817577007,0.00217583941739875,0.000608842792487212,0.00120727716365506,0.00953136397756806,0.0166666666666667,5.85360180976733e-06,"PAYLOAD","LARGE"
0.902484253965533,0.000146342126715563,0.677210190836104,0.0633922298199267,0.222501588275182,0.777877815005455,0.00261553773977336,0.000733979517028379,0.00146370750587985,0.0110854653835964,0.0333333333333333,7.05060522302305e-06,"PAYLOAD","LARGE"
0.917748949306571,0.000143332806516538,0.366940369942069,0.0960639025814569,0.235384743168889,0.764956715302168,0.00217587354928395,0.000608842792487212,0.00120770429922413,0.00952904721957715,0.0166666666666667,6.81910451363384e-06,"PAYLOAD","LARGE"
0.917750423596611,0.000177326979135157,0.366921004144281,0.742154906307274,0.199844881003673,0.800504532093847,0.00217583372875122,0.000608842792487212,0.00120837976942639,0.00952463530653357,0.0166666666666667,8.49225817334091e-06,"PAYLOAD","LARGE"
0.917746699203622,0.000178441542171833,0.366923079051187,0.492853271265091,0.213199170957857,0.787151460467902,0.0021759361244068,0.000608842792487212,0.00120846254763745,0.00952487705519349,0.0166666666666667,8.54713943937428e-06,"PAYLOAD","LARGE"
0.917744789132596,0.000152472223417281,0.366925845593728,0.369418463060904,0.252584784170973,0.747759510257736,0.00217599301088213,0.000608842792487212,0.0012079592561142,0.00952832197359738,0.0166666666666667,7.26896200565372e-06,"PAYLOAD","LARGE"
0.870449495921883,0.00132176030519411,0.68069188462411,0.703771295790307,0.513865288152148,0.486451777071375,0.00357946768685506,0.00101068371353717,0.00204989644081572,0.0143462921829503,0.316666666666667,6.71476369749345e-05,"PAYLOAD","LARGE"
0.879242373470313,0.00191158706420307,0.681059834782079,0.00510740582178699,0.775656651435337,0.224153703110559,0.00330910902422697,0.00093271690696946,0.00190482928149552,0.0133140254050846,0.0333333333333333,9.65651636768498e-05,"PAYLOAD","LARGE"
0.917747206182628,0.000104211643929209,0.366937603399527,0.0669949734392116,0.254939348305761,0.745391026262504,0.00217592474711174,0.000608842792487212,0.00120692618404016,0.00953410379571384,0.0166666666666667,4.89360291748967e-06,"PAYLOAD","LARGE"
0.935109281650975,0.00104033313843341,0.672417155883606,0.083761288786516,0.491663881802881,0.66542205045821,0.00169033041644518,0.000471465279314915,0.000943277581810848,0.00769886884391822,0.116666666666667,5.03342663665418e-05,"PAYLOAD","LARGE"
0.9177437696506,0.00019348814316696,0.366921695779916,0.452517989409023,0.21271331292674,0.787641491639329,0.00217602145411979,0.00060892075929378,0.00120882014950924,0.00952328554318235,0.0333333333333333,9.28774206009424e-06,"PAYLOAD","LARGE"
0.917749820868543,0.000197723482706328,0.366929995407539,0.481613866895737,0.206433549260976,0.79392189114252,0.00217585079469382,0.000608842792487212,0.00120880690499547,0.00952213723704772,0.0166666666666667,9.49615914280786e-06,"PAYLOAD","LARGE"
0.905780239260284,0.00159226475419538,0.676026802264138,0.0520383644410761,0.960822730711033,0.0394183407777884,0.00251956456725309,0.000706613167923115,0.00143784759274439,0.0105630666752273,0.15,7.88202852358677e-05,"DEBRIS","LARGE"
0.873443448166865,0.000270504449001273,0.597513708218291,0.855756624778197,0.250179106326794,0.750256335750246,0.00348690770285427,0.000983941098884443,0.0019736080415019,0.014154847390014,0.0666666666666667,1.35303937068195e-05,"PAYLOAD","LARGE"
0.917749910479844,0.000169079212663754,0.366921695779916,0.675103535817267,0.186178075163265,0.814167623440491,0.00217584510604629,0.000608842792487212,0.00120821752413271,0.00952572317550322,0.0166666666666667,8.08631338019461e-06,"PAYLOAD","LARGE"
0.873445647326403,0.000226813577963573,0.597574572154196,0.0313912096722887,0.288234374136241,0.71218613628478,0.00348683943908388,0.000983941098884443,0.00197263788086826,0.0141602665891406,0.0666666666666667,1.13083854070054e-05,"PAYLOAD","LARGE"
0.917751915072379,0.000204522317230052,0.366935528492622,0.607313169489251,0.204496228558285,0.795860903374131,0.00217578821957096,0.000608842792487212,0.00120891286110563,0.00952108965952139,0.0166666666666667,9.83077508407965e-06,"PAYLOAD","LARGE"
0.917748921072874,0.000140212030013845,0.36693137867881,0.735674246189518,0.199796267421372,0.800542867865761,0.00217587354928395,0.000608842792487212,0.00120763807665529,0.00952942998828869,0.0166666666666667,6.66550268709489e-06,"PAYLOAD","LARGE"
0.917747085882525,0.000183345619533208,0.366934145221351,0.371921047462702,0.210996558991749,0.78935548955753,0.00217592474711174,0.000608842792487212,0.00120855857036228,0.00952421224637871,0.0166666666666667,8.78851143787284e-06,"PAYLOAD","LARGE"
0.917747247305622,0.00016183455292536,0.366935528492622,0.570774548205449,0.208271698255772,0.792073995818067,0.00217592474711174,0.000608842792487212,0.00120811156802255,0.00952689162735951,0.0166666666666667,7.72975461472643e-06,"PAYLOAD","LARGE"
0.917747778221894,0.000165624067250059,0.366934836856986,0.598049328805641,0.200891045294802,0.799455020888829,0.00217590768116915,0.000608842792487212,0.00120818110171985,0.00952636783859635,0.0166666666666667,7.91626771300979e-06,"PAYLOAD","LARGE"
0.917752976904922,0.000201067171816357,0.366927920500634,0.687240014457648,0.19625692083792,0.804098371813096,0.0021757597763333,0.000608842792487212,0.00120882346063768,0.00952141199106795,0.0166666666666667,9.66070894823034e-06,"PAYLOAD","LARGE"
0.917760668746211,0.000167184455501405,0.366936220128257,0.660164707170121,0.164947829292433,0.83539480705856,0.00217554360772707,0.000608764825680644,0.00120799898965551,0.00952487705519349,0.0166666666666667,7.99299016412158e-06,"PAYLOAD","LARGE"
0.894563965236152,0.00105248187553318,0.677934333346244,0.841290364522199,0.312849792086653,0.687788751006661,0.00284853905405574,0.0008005631698372,0.00161831071511428,0.0117951588662399,0.133333333333333,5.24556962774993e-05,"DEBRIS","LARGE"
0.917748695817068,0.000162503290747366,0.366938295035163,0.742640254325695,0.208517821878168,0.791828146846008,0.00217587923793148,0.000608842792487212,0.00120810163463723,0.00952667002442125,0.0166666666666667,7.76265978468591e-06,"PAYLOAD","LARGE"
0.917747843282154,0.000154812805794301,0.366925845593728,0.783788987239542,0.214618409769163,0.785725536429956,0.00217590768116915,0.000608842792487212,0.0012079592561142,0.00952771760194758,0.0166666666666667,7.38414663862248e-06,"PAYLOAD","LARGE"
0.899724667803633,0.000179110279993839,0.67748200364077,0.0617825524193918,0.254567107161281,0.745852722298168,0.00269633360067701,0.00075705769177242,0.0015114274889923,0.0113674047582301,0.05,8.70005478778037e-06,"PAYLOAD","LARGE"
0.917750852012284,0.000197946395313664,0.366934836856986,0.620879299476396,0.174704436364404,0.825647242560707,0.00217582235145616,0.000608842792487212,0.00120879697161014,0.00952201636271776,0.0166666666666667,9.50712346731413e-06,"PAYLOAD","LARGE"
0.874125218312617,0.000181673774978194,0.681285307999181,0.0593002487304413,0.292181519227227,0.708223939800615,0.0034659052161644,0.000977937654778729,0.00195948938982333,0.0140919725927127,0.0333333333333333,9.00781801723198e-06,"PAYLOAD","LARGE"
0.917747505705334,0.000174429115239799,0.366923079051187,0.399106648489962,0.204540675262104,0.795808122238887,0.00217591336981667,0.000608842792487212,0.00120836652491262,0.00952530011534836,0.0333333333333333,8.34964594899988e-06,"PAYLOAD","LARGE"
0.85030597281677,0.000669295103523958,0.464421571285502,0.614975945129837,0.675735738788944,0.324412302893712,0.00421619800516424,0.00119523114468292,0.00240683277578235,0.0166844046388264,0.05,3.44265027264738e-05,"PAYLOAD","LARGE"
0.917748212775328,0.000151469116684273,0.366924462322457,0.288001958061153,0.257873386341583,0.742470562710795,0.00217589630387408,0.000608842792487212,0.00120788310016003,0.00952810037065912,0.0166666666666667,7.21957087982063e-06,"PAYLOAD","LARGE"
0.917760662608451,0.000144447369553214,0.366936911763892,0.954767898354178,0.213863371388046,0.786477806504914,0.00217554360772707,0.000608764825680644,0.00120753212054513,0.00952771760194758,0.0166666666666667,6.87390051468869e-06,"PAYLOAD","LARGE"
0.917743868468542,0.000175878047187478,0.366921004144281,0.481470234997898,0.235417244821056,0.76493365827993,0.00217602145411979,0.00060892075929378,0.00120845592538057,0.0095254814268433,0.0166666666666667,8.42098564197896e-06,"PAYLOAD","LARGE"
0.91928053411154,0.00154110631081195,0.67450520386652,0.0535874775210524,0.678264200652422,0.679634065611396,0.00213242934807849,0.000596524037049514,0.00121113793941895,0.00920043020785691,0.05,7.55323225430961e-05,"PAYLOAD","LARGE"
